[{"OBJECT_NAME":"STARLINK-6155","OBJECT_ID":"2023-088AE","EPOCH":"2026-03-09T22:00:01.999584","MEAN_MOTION":15.0814224,"ECCENTRICITY":6.889e-5,"INCLINATION":43.0008,"RA_OF_ASC_NODE":93.5945,"ARG_OF_PERICENTER":294.9582,"MEAN_ANOMALY":282.2332,"EPHEMERIS_TYPE":0,"CLASSIFICATION_TYPE":"U","NORAD_CAT_ID":57076,"ELEMENT_SET_NO":999,"REV_AT_EPOCH":557,"BSTAR":0.0031941456,"MEAN_MOTION_DOT":0.00050317,"MEAN_MOTION_DDOT":0},{"OBJECT_NAME":"OBJECT K","OBJECT_ID":"2017-042K","EPOCH":"2026-03-09T21:28:20.621568","MEAN_MOTION":15.07994228,"ECCENTRICITY":0.00097557,"INCLINATION":97.4104,"RA_OF_ASC_NODE":233.8721,"ARG_OF_PERICENTER":49.2775,"MEAN_ANOMALY":310.9299,"EPHEMERIS_TYPE":0,"CLASSIFICATION_TYPE":"U","NORAD_CAT_ID":42834,"ELEMENT_SET_NO":999,"REV_AT_EPOCH":47201,"BSTAR":0.00042776846,"MEAN_MOTION_DOT":6.528e-5,"MEAN_MOTION_DDOT":0}]
